{
    "links": {
        "self": "http://www.neowsapp.com/rest/v1/neo/3799879?api_key=iIulBulltgU6a56xZRHN4H3l9WmuAYTsLGpBGhQ2"
    },
    "id": "3799879",
    "neo_reference_id": "3799879",
    "name": "(2018 EU3)",
    "designation": "2018 EU3",
    "nasa_jpl_url": "http://ssd.jpl.nasa.gov/sbdb.cgi?sstr=3799879",
    "absolute_magnitude_h": 23.9,
    "estimated_diameter": {
        "kilometers": {
            "estimated_diameter_min": 0.04411182,
            "estimated_diameter_max": 0.0986370281
        },
        "meters": {
            "estimated_diameter_min": 44.1118199997,
            "estimated_diameter_max": 98.6370281305
        },
        "miles": {
            "estimated_diameter_min": 0.0274098057,
            "estimated_diameter_max": 0.0612901888
        },
        "feet": {
            "estimated_diameter_min": 144.7238235278,
            "estimated_diameter_max": 323.6123073718
        }
    },
    "is_potentially_hazardous_asteroid": false,
    "close_approach_data": [
        {
            "close_approach_date": "2017-10-21",
            "close_approach_date_full": "2017-Oct-21 18:44",
            "epoch_date_close_approach": 1508611440000,
            "relative_velocity": {
                "kilometers_per_second": "11.4507462211",
                "kilometers_per_hour": "41222.6863961018",
                "miles_per_hour": "25614.1742220667"
            },
            "miss_distance": {
                "astronomical": "0.321238241",
                "lunar": "124.961675749",
                "kilometers": "48056556.61614667",
                "miles": "29860959.610177246"
            },
            "orbiting_body": "Earth"
        },
        {
            "close_approach_date": "2018-03-11",
            "close_approach_date_full": "2018-Mar-11 03:41",
            "epoch_date_close_approach": 1520739660000,
            "relative_velocity": {
                "kilometers_per_second": "13.131849574",
                "kilometers_per_hour": "47274.6584664007",
                "miles_per_hour": "29374.634312081"
            },
            "miss_distance": {
                "astronomical": "0.1354191517",
                "lunar": "52.6780500113",
                "kilometers": "20258416.651526879",
                "miles": "12587996.3941097702"
            },
            "orbiting_body": "Earth"
        }
    ],
    "orbital_data": {
        "orbit_id": "3",
        "orbit_determination_date": "2018-03-20 06:49:46",
        "first_observation_date": "2018-03-09",
        "last_observation_date": "2018-03-20",
        "data_arc_in_days": 11,
        "observations_used": 37,
        "orbit_uncertainty": "8",
        "minimum_orbit_intersection": ".135369",
        "jupiter_tisserand_invariant": "4.523",
        "epoch_osculation": "2458191.5",
        "eccentricity": ".3268365472612411",
        "semi_major_axis": "1.447118238786336",
        "inclination": "21.5296235451654",
        "ascending_node_longitude": ".7332119279421891",
        "orbital_period": "635.8496735664523",
        "perihelion_distance": ".974147110142642",
        "perihelion_argument": "109.8182431402639",
        "aphelion_distance": "1.920089367430031",
        "perihelion_time": "2458134.430927053347",
        "mean_anomaly": "32.3108859135837",
        "mean_motion": ".5661715574701425",
        "equinox": "J2000",
        "orbit_class": {
            "orbit_class_type": "APO",
            "orbit_class_description": "Near-Earth asteroid orbits which cross the Earth’s orbit similar to that of 1862 Apollo",
            "orbit_class_range": "a (semi-major axis) > 1.0 AU; q (perihelion) < 1.017 AU"
        }
    },
    "is_sentry_object": false
}